{"type": "FeatureCollection", "features": [ {"type": "Feature", "properties": {"norad_id": 28649, "name": "IRS-P5 (CARTOSAT-1)", "group": "resource", "lat": 62.77394622564834, "lon": -143.34906904420097, "alt_km": 590.2793256966643, "timestamp": "2025-12-21T16:47:54.385248+00:00", "meta": {"OBJECT_NAME": "IRS-P5 (CARTOSAT-1)", "OBJECT_ID": "2005-017A", "EPOCH": "2025-12-21T01:46:39.296352", "MEAN_MOTION": 14.90430022, "ECCENTRICITY": 7.415e-05, "INCLINATION": 97.5484, "RA_OF_ASC_NODE": 21.1176, "ARG_OF_PERICENTER": 52.3695, "MEAN_ANOMALY": 307.7591, "EPHEMERIS_TYPE": 0, "CLASSIFICATION_TYPE": "U", "NORAD_CAT_ID": 28649, "ELEMENT_SET_NO": 999, "REV_AT_EPOCH": 11728, "BSTAR": 0.00011252547, "MEAN_MOTION_DOT": 1.044e-05, "MEAN_MOTION_DDOT": 0}, "tle": {"line1": "1 28649U 05017A   25355.07406593  .00001044  00000+0  11253-3 0  9999", "line2": "2 28649  97.5484  21.1176 0000741  52.3695 307.7591 14.90430022117284"}}, "geometry": {"type": "Point", "coordinates": [-143.34906904420097, 62.77394622564834]}}, {"type": "Feature", "properties": {"norad_id": 28893, "name": "SINAH 1", "group": "resource", "lat": -21.974734458749523, "lon": 127.64210073010541, "alt_km": 693.245022070947, "timestamp": "2025-12-21T16:47:54.385259+00:00", "meta": {"OBJECT_NAME": "SINAH 1", "OBJECT_ID": "2005-043D", "EPOCH": "2025-12-21T11:58:43.695840", "MEAN_MOTION": 14.63971064, "ECCENTRICITY": 0.0015662, "INCLINATION": 98.2608, "RA_OF_ASC_NODE": 124.08, "ARG_OF_PERICENTER": 111.3874, "MEAN_ANOMALY": 248.9001, "EPHEMERIS_TYPE": 0, "CLASSIFICATION_TYPE": "U", "NORAD_CAT_ID": 28893, "ELEMENT_SET_NO": 999, "REV_AT_EPOCH": 7452, "BSTAR": 7.5744e-05, "MEAN_MOTION_DOT": 3.48e-06, "MEAN_MOTION_DDOT": 0}, "tle": {"line1": "1 28893U 05043D   25355.49911685  .00000348  00000+0  75744-4 0  9990", "line2": "2 28893  98.2608 124.0800 0015662 111.3874 248.9001 14.63971064 74528"}}, "geometry": {"type": "Point", "coordinates": [127.64210073010541, -21.974734458749523]}}, {"type": "Feature", "properties": {"norad_id": 29079, "name": "EROS B", "group": "resource", "lat": 28.247001326760792, "lon": -63.306441224054296, "alt_km": 357.2551612253992, "timestamp": "2025-12-21T16:47:54.385270+00:00", "meta": {"OBJECT_NAME": "EROS B", "OBJECT_ID": "2006-014A", "EPOCH": "2025-12-21T11:34:10.561152", "MEAN_MOTION": 15.7091576, "ECCENTRICITY": 0.0003611, "INCLINATION": 97.3463, "RA_OF_ASC_NODE": 112.4898, "ARG_OF_PERICENTER": 311.0639, "MEAN_ANOMALY": 49.0311, "EPHEMERIS_TYPE": 0, "CLASSIFICATION_TYPE": "U", "NORAD_CAT_ID": 29079, "ELEMENT_SET_NO": 999, "REV_AT_EPOCH": 9217, "BSTAR": 0.0012426, "MEAN_MOTION_DOT": 0.00157438, "MEAN_MOTION_DDOT": 0}, "tle": {"line1": "1 29079U 06014A   25355.48206668  .00157438  00000+0  12426-2 0  9992", "line2": "2 29079  97.3463 112.4898 0003611 311.0639  49.0311 15.70915760 92176"}}, "geometry": {"type": "Point", "coordinates": [-63.306441224054296, 28.247001326760792]}}, {"type": "Feature", "properties": {"norad_id": 29228, "name": "RESURS-DK 1", "group": "resource", "lat": 28.85884861800706, "lon": 90.30363954781538, "alt_km": 531.1879602010595, "timestamp": "2025-12-21T16:47:54.385280+00:00", "meta": {"OBJECT_NAME": "RESURS-DK 1", "OBJECT_ID": "2006-021A", "EPOCH": "2025-12-21T08:43:27.721056", "MEAN_MOTION": 15.12204563, "ECCENTRICITY": 0.0006856, "INCLINATION": 69.9339, "RA_OF_ASC_NODE": 79.5514, "ARG_OF_PERICENTER": 251.4552, "MEAN_ANOMALY": 108.5869, "EPHEMERIS_TYPE": 0, "CLASSIFICATION_TYPE": "U", "NORAD_CAT_ID": 29228, "ELEMENT_SET_NO": 999, "REV_AT_EPOCH": 7568, "BSTAR": 0.00012178, "MEAN_MOTION_DOT": 2.001e-05, "MEAN_MOTION_DDOT": 0}, "tle": {"line1": "1 29228U 06021A   25355.36351529  .00002001  00000+0  12178-3 0  9990", "line2": "2 29228  69.9339  79.5514 0006856 251.4552 108.5869 15.12204563 75686"}}, "geometry": {"type": "Point", "coordinates": [90.30363954781538, 28.85884861800706]}}, {"type": "Feature", "properties": {"norad_id": 29268, "name": "ARIRANG-2 (KOMPSAT-2)", "group": "resource", "lat": -77.50634564467809, "lon": -34.6278994761329, "alt_km": 677.1761353378561, "timestamp": "2025-12-21T16:47:54.385291+00:00", "meta": {"OBJECT_NAME": "ARIRANG-2 (KOMPSAT-2)", "OBJECT_ID": "2006-031A", "EPOCH": "2025-12-21T12:42:51.219936", "MEAN_MOTION": 14.6450088, "ECCENTRICITY": 0.0013179, "INCLINATION": 97.8252, "RA_OF_ASC_NODE": 183.5738, "ARG_OF_PERICENTER": 278.865, "MEAN_ANOMALY": 164.7333, "EPHEMERIS_TYPE": 0, "CLASSIFICATION_TYPE": "U", "NORAD_CAT_ID": 29268, "ELEMENT_SET_NO": 999, "REV_AT_EPOCH": 3547, "BSTAR": 5.9104e-05, "MEAN_MOTION_DOT": 2.68e-06, "MEAN_MOTION_DDOT": 0}, "tle": {"line1": "1 29268U 06031A   25355.52975949  .00000268  00000+0  59104-4 0  9995", "line2": "2 29268  97.8252 183.5738 0013179 278.8650 164.7333 14.64500880 35476"}}, "geometry": {"type": "Point", "coordinates": [-34.6278994761329, -77.50634564467809]}}, {"type": "Feature", "properties": {"norad_id": 29709, "name": "LAPAN-TUBSAT", "group": "resource", "lat": 22.222124873923878, "lon": 169.3866421640067, "alt_km": 614.3324021125054, "timestamp": "2025-12-21T16:47:54.385302+00:00", "meta": {"OBJECT_NAME": "LAPAN-TUBSAT", "OBJECT_ID": "2007-001A", "EPOCH": "2025-12-21T12:51:37.695744", "MEAN_MOTION": 14.85683403, "ECCENTRICITY": 0.0013377, "INCLINATION": 98.1252, "RA_OF_ASC_NODE": 345.8731, "ARG_OF_PERICENTER": 48.2196, "MEAN_ANOMALY": 312.0159, "EPHEMERIS_TYPE": 0, "CLASSIFICATION_TYPE": "U", "NORAD_CAT_ID": 29709, "ELEMENT_SET_NO": 999, "REV_AT_EPOCH": 2477, "BSTAR": 0.00010757, "MEAN_MOTION_DOT": 8.77e-06, "MEAN_MOTION_DDOT": 0}, "tle": {"line1": "1 29709U 07001A   25355.53585296  .00000877  00000+0  10757-3 0  9992", "line2": "2 29709  98.1252 345.8731 0013377  48.2196 312.0159 14.85683403 24771"}}, "geometry": {"type": "Point", "coordinates": [169.3866421640067, 22.222124873923878]}}, {"type": "Feature", "properties": {"norad_id": 31113, "name": "HAIYANG-1B", "group": "resource", "lat": 77.33525997046765, "lon": -61.09709056990784, "alt_km": 777.4850459881309, "timestamp": "2025-12-21T16:47:54.385330+00:00", "meta": {"OBJECT_NAME": "HAIYANG-1B", "OBJECT_ID": "2007-010A", "EPOCH": "2025-12-20T20:17:13.259040", "MEAN_MOTION": 14.30967553, "ECCENTRICITY": 0.0013866, "INCLINATION": 98.3321, "RA_OF_ASC_NODE": 338.7888, "ARG_OF_PERICENTER": 14.9776, "MEAN_ANOMALY": 345.1816, "EPHEMERIS_TYPE": 0, "CLASSIFICATION_TYPE": "U", "NORAD_CAT_ID": 31113, "ELEMENT_SET_NO": 999, "REV_AT_EPOCH": 97512, "BSTAR": 4.2056e-05, "MEAN_MOTION_DOT": 6.9e-07, "MEAN_MOTION_DDOT": 0}, "tle": {"line1": "1 31113U 07010A   25354.84529235  .00000069  00000+0  42056-4 0  9999", "line2": "2 31113  98.3321 338.7888 0013866  14.9776 345.1816 14.30967553975125"}}, "geometry": {"type": "Point", "coordinates": [-61.09709056990784, 77.33525997046765]}}, {"type": "Feature", "properties": {"norad_id": 31598, "name": "COSMO-SKYMED 1", "group": "resource", "lat": 76.63538557382854, "lon": 145.47894825827248, "alt_km": 571.5063196175151, "timestamp": "2025-12-21T16:47:54.385343+00:00", "meta": {"OBJECT_NAME": "COSMO-SKYMED 1", "OBJECT_ID": "2007-023A", "EPOCH": "2025-12-21T11:37:46.227648", "MEAN_MOTION": 14.95828906, "ECCENTRICITY": 0.000153, "INCLINATION": 97.8838, "RA_OF_ASC_NODE": 180.9413, "ARG_OF_PERICENTER": 81.9726, "MEAN_ANOMALY": 278.1668, "EPHEMERIS_TYPE": 0, "CLASSIFICATION_TYPE": "U", "NORAD_CAT_ID": 31598, "ELEMENT_SET_NO": 999, "REV_AT_EPOCH": 321, "BSTAR": 0.00026932, "MEAN_MOTION_DOT": 2.948e-05, "MEAN_MOTION_DDOT": 0}, "tle": {"line1": "1 31598U 07023A   25355.48456282  .00002948  00000+0  26932-3 0  9994", "line2": "2 31598  97.8838 180.9413 0001530  81.9726 278.1668 14.95828906  3215"}}, "geometry": {"type": "Point", "coordinates": [145.47894825827248, 76.63538557382854]}}, {"type": "Feature", "properties": {"norad_id": 31698, "name": "TERRASAR-X", "group": "resource", "lat": 52.39986642365635, "lon": -169.2733868171277, "alt_km": 502.53771079474245, "timestamp": "2025-12-21T16:47:54.385354+00:00", "meta": {"OBJECT_NAME": "TERRASAR-X", "OBJECT_ID": "2007-026A", "EPOCH": "2025-12-20T11:47:12.844032", "MEAN_MOTION": 15.19153914, "ECCENTRICITY": 0.0001874, "INCLINATION": 97.4453, "RA_OF_ASC_NODE": 359.7585, "ARG_OF_PERICENTER": 92.6145, "MEAN_ANOMALY": 267.5304, "EPHEMERIS_TYPE": 0, "CLASSIFICATION_TYPE": "U", "NORAD_CAT_ID": 31698, "ELEMENT_SET_NO": 999, "REV_AT_EPOCH": 2609, "BSTAR": 3.1273e-05, "MEAN_MOTION_DOT": 5.9e-06, "MEAN_MOTION_DDOT": 0}, "tle": {"line1": "1 31698U 07026A   25354.49112088  .00000590  00000+0  31273-4 0  9997", "line2": "2 31698  97.4453 359.7585 0001874  92.6145 267.5304 15.19153914 26093"}}, "geometry": {"type": "Point", "coordinates": [-169.2733868171277, 52.39986642365635]}}, {"type": "Feature", "properties": {"norad_id": 32060, "name": "WORLDVIEW-1 (WV-1)", "group": "resource", "lat": -57.027211426031805, "lon": 124.58143865079487, "alt_km": 500.21239131897437, "timestamp": "2025-12-21T16:47:54.385365+00:00", "meta": {"OBJECT_NAME": "WORLDVIEW-1 (WV-1)", "OBJECT_ID": "2007-041A", "EPOCH": "2025-12-21T07:35:45.212064", "MEAN_MOTION": 15.23889862, "ECCENTRICITY": 0.0003441, "INCLINATION": 97.3826, "RA_OF_ASC_NODE": 112.6749, "ARG_OF_PERICENTER": 8.1676, "MEAN_ANOMALY": 351.9617, "EPHEMERIS_TYPE": 0, "CLASSIFICATION_TYPE": "U", "NORAD_CAT_ID": 32060, "ELEMENT_SET_NO": 999, "REV_AT_EPOCH": 1578, "BSTAR": 0.00024181, "MEAN_MOTION_DOT": 5.768e-05, "MEAN_MOTION_DDOT": 0}, "tle": {"line1": "1 32060U 07041A   25355.31649551  .00005768  00000+0  24181-3 0  9991", "line2": "2 32060  97.3826 112.6749 0003441   8.1676 351.9617 15.23889862 15783"}}, "geometry": {"type": "Point", "coordinates": [124.58143865079487, -57.027211426031805]}}]}